NORAD_CAT_ID,OBJECT_NAME,OBJECT_TYPE,EPOCH,MEAN_MOTION,ECCENTRICITY,INCLINATION,RA_OF_ASC_NODE,ARG_OF_PERICENTER,MEAN_ANOMALY,BSTAR,MEAN_MOTION_DOT,MEAN_MOTION_DDOT,TLE_LINE0,TLE_LINE1,TLE_LINE2,SEMIMAJOR_AXIS,PERIOD,APOGEE,PERIGEE,DECAYED
50171.0,STARLINK-3286,PAYLOAD,2022-02-23 22:00:00,15.48071133,0.0001273,53.2176,33.6326,54.7559,310.521,-0.013304,-0.00652476,0.0,0 STARLINK-3286,1 50171U 21125R   22054.91667824 -.00652476  00000-0 -13304-1 0  9995,2 50171  53.2176  33.6326 0001273  54.7559 310.5210 15.48071133  3706,6800.505999999999,93.019,423.237,421.505,0.0
50171.0,STARLINK-3286,PAYLOAD,2022-02-24 14:00:01,15.47139614,0.0001412,53.2172,30.4548,52.6288,68.9909,-0.013808,-0.00655255,0.0,0 STARLINK-3286,1 50171U 21125R   22055.58334491 -.00655255  00000-0 -13808-1 0  9997,2 50171  53.2172  30.4548 0001412  52.6288  68.9909 15.47139614  3688,6803.235,93.075,426.061,424.14,0.0
50171.0,STARLINK-3286,PAYLOAD,2022-02-24 22:00:00,15.46673146,0.0001564999999999,53.2174,28.8661,49.6162,129.3345,-0.014014,-0.0065441,0.0,0 STARLINK-3286,1 50171U 21125R   22055.91667824 -.00654410  00000-0 -14014-1 0  9995,2 50171  53.2174  28.8661 0001565  49.6162 129.3345 15.46673146  3670,6804.603,93.103,427.533,425.403,0.0
50171.0,STARLINK-3286,PAYLOAD,2022-02-25 06:00:00,15.46206024,0.0001633,53.2174,27.2815,49.0961,186.6243,-0.014245,-0.00654501,0.0,0 STARLINK-3286,1 50171U 21125R   22056.25001157 -.00654501  00000-0 -14245-1 0  9991,2 50171  53.2174  27.2815 0001633  49.0961 186.6243 15.46206024 13627,6805.974,93.131,428.95,426.727,0.0
50171.0,STARLINK-3286,PAYLOAD,2022-02-25 14:00:01,15.45741463,0.0001281,53.2173,25.695,66.52600000000001,225.4041,-0.014564,-0.00658122,0.0,0 STARLINK-3286,1 50171U 21125R   22056.58334491 -.00658122  00000-0 -14564-1 0  9994,2 50171  53.2173  25.6950 0001281  66.5260 225.4041 15.45741463  3675,6807.337,93.159,430.074,428.33,0.0
50171.0,STARLINK-3286,PAYLOAD,2022-02-25 22:00:00,15.45272209,0.0001315,53.2174,24.1097,56.2509,291.3293,-0.0146639999999999,-0.00652488,0.0,0 STARLINK-3286,1 50171U 21125R   22056.91667824 -.00652488  00000-0 -14664-1 0  9990,2 50171  53.2174  24.1097 0001315  56.2509 291.3293 15.45272209  3681,6808.715,93.187,431.476,429.685,0.0
50171.0,STARLINK-3286,PAYLOAD,2022-02-26 14:00:01,15.4434034,0.0001355,53.2174,20.9452,52.1473,45.0482,-0.015207,-0.00655135,0.0,0 STARLINK-3286,1 50171U 21125R   22057.58334491 -.00655135  00000-0 -15207-1 0  9991,2 50171  53.2174  20.9452 0001355  52.1473  45.0482 15.44340340 13832,6811.454000000002,93.244,434.242,432.396,0.0
50171.0,STARLINK-3286,PAYLOAD,2022-02-26 22:00:00,15.43873017,0.0001609,53.2175,19.3635,47.9752,103.188,-0.015402,-0.00653233,0.0,0 STARLINK-3286,1 50171U 21125R   22057.91667824 -.00653233  00000-0 -15402-1 0  9991,2 50171  53.2175  19.3635 0001609  47.9752 103.1880 15.43873017  3694,6812.829000000002,93.272,435.79,433.597,0.0
50171.0,STARLINK-3286,PAYLOAD,2022-02-27 14:00:01,15.42942359,0.0001366,53.2175,16.2052,63.2238,194.1908,-0.016028,-0.00666116,0.0,0 STARLINK-3286,1 50171U 21125R   22058.58334491 -.00666116  00000-0 -16028-1 0  9995,2 50171  53.2175  16.2052 0001366  63.2238 194.1908 15.42942359  3688,6815.568,93.328,438.364,436.502,0.0
50171.0,STARLINK-3286,PAYLOAD,2022-02-27 22:00:00,15.42474048,0.0001445,53.2177,14.6271,52.2951,257.4052,-0.016174,-0.00661948,0.0,0 STARLINK-3286,1 50171U 21125R   22058.91667824 -.00661948  00000-0 -16174-1 0  9991,2 50171  53.2177  14.6271 0001445  52.2951 257.4052 15.42474048 14032,6816.946999999999,93.357,439.797,437.827,0.0
50171.0,STARLINK-3286,PAYLOAD,2022-02-28 14:00:01,15.41540381,0.000135,53.2175,11.4754,49.1313,3.4578,-0.0166949999999999,-0.00662128,0.0,0 STARLINK-3286,1 50171U 21125R   22059.58334491 -.00662128  00000-0 -16695-1 0  9995,2 50171  53.2175  11.4754 0001350  49.1313   3.4578 15.41540381  3676,6819.699000000001,93.413,442.485,440.644,0.0
50171.0,STARLINK-3286,PAYLOAD,2022-02-28 22:00:00,15.41073277,0.00016,53.2176,9.9008,42.2345,60.9582,-0.016921,-0.00660814,0.0,0 STARLINK-3286,1 50171U 21125R   22059.91667824 -.00660814  00000-0 -16921-1 0  9993,2 50171  53.2176   9.9008 0001600  42.2345  60.9582 15.41073277  3698,6821.0769999999975,93.441,444.034,441.851,0.0
50171.0,STARLINK-3286,PAYLOAD,2022-03-01 06:00:00,15.406051500000002,0.0001631,53.2174,8.3294,47.056,106.1789,-0.017122,-0.00658479,0.0,0 STARLINK-3286,1 50171U 21125R   22060.25001157 -.00658479  00000-0 -17122-1 0  9991,2 50171  53.2174   8.3294 0001631  47.0560 106.1789 15.40605150 14247,6822.459,93.47,445.437,443.211,0.0
50171.0,STARLINK-3286,PAYLOAD,2022-03-01 14:00:01,15.40141396,0.0001463,53.2174,6.7555,57.2626,145.4542,-0.017509,-0.00662722,0.0,0 STARLINK-3286,1 50171U 21125R   22060.58334491 -.00662722  00000-0 -17509-1 0  9992,2 50171  53.2174   6.7555 0001463  57.2626 145.4542 15.40141396  3673,6823.829000000002,93.498,446.692,444.695,0.0
50171.0,STARLINK-3286,PAYLOAD,2022-03-01 22:00:01,15.39673768,0.0001484,53.2176,5.1844,57.7675,193.9351,-0.0177219999999999,-0.00660624,0.0,0 STARLINK-3286,1 50171U 21125R   22060.91668981 -.00660624  00000-0 -17722-1 0  9999,2 50171  53.2176   5.1844 0001484  57.7675 193.9351 15.39673768  3689,6825.21,93.526,448.088,446.062,0.0
50171.0,STARLINK-3286,PAYLOAD,2022-03-02 06:00:00,15.39206079,0.0001444,53.2174,3.6163,54.0485,245.9501,-0.017953,-0.00659081,0.0,0 STARLINK-3286,1 50171U 21125R   22061.25001157 -.00659081  00000-0 -17953-1 0  9994,2 50171  53.2174   3.6163 0001444  54.0485 245.9501 15.39206079 14391,6826.593000000003,93.555,449.444,447.472,0.0
50171.0,STARLINK-3286,PAYLOAD,2022-03-02 14:00:01,15.38741517,0.000126,53.2174,2.0458,57.9376,289.8615,-0.018343,-0.00662867,0.0,0 STARLINK-3286,1 50171U 21125R   22061.58334491 -.00662867  00000-0 -18343-1 0  9990,2 50171  53.2174   2.0458 0001260  57.9376 289.8615 15.38741517  3658,6827.967,93.583,450.692,448.971,0.0
50171.0,STARLINK-3286,PAYLOAD,2022-03-02 22:00:00,15.38275517,0.0001426999999999,53.2175,0.4783,47.0783,347.96,-0.018641,-0.00663389,0.0,0 STARLINK-3286,1 50171U 21125R   22061.91667824 -.00663389  00000-0 -18641-1 0  9997,2 50171  53.2175   0.4783 0001427  47.0783 347.9600 15.38275517  3673,6829.346,93.611,452.185,450.236,0.0
50171.0,STARLINK-3286,PAYLOAD,2022-03-03 06:00:00,15.37804808,0.0001351999999999,53.2174,358.9133,54.6694,27.0484,-0.018734,-0.00656967,0.0,0 STARLINK-3286,1 50171U 21125R   22062.25001157 -.00656967  00000-0 -18734-1 0  9993,2 50171  53.2174 358.9133 0001352  54.6694  27.0484 15.37804808 14548,6830.739000000001,93.64,453.528,451.681,0.0
50171.0,STARLINK-3286,PAYLOAD,2022-03-03 14:00:01,15.37339778,0.0001486,53.2174,357.3461,48.6343,79.202,-0.019083,-0.00658994,0.0,0 STARLINK-3286,1 50171U 21125R   22062.58334491 -.00658994  00000-0 -19083-1 0  9999,2 50171  53.2174 357.3461 0001486  48.6343  79.2020 15.37339778  3684,6832.1169999999975,93.668,454.997,452.966,0.0
50171.0,STARLINK-3286,PAYLOAD,2022-03-03 22:00:00,15.36873865,0.0001645,53.2175,355.7819,47.8761,125.5175,-0.019411,-0.00660171,0.0,0 STARLINK-3286,1 50171U 21125R   22062.91667824 -.00660171  00000-0 -19411-1 0  9990,2 50171  53.2175 355.7819 0001645  47.8761 125.5175 15.36873865  3670,6833.496999999999,93.697,456.486,454.23800000000006,0.0
50171.0,STARLINK-3286,PAYLOAD,2022-03-04 06:00:02,15.36403572,0.0001423,53.2174,354.2201,63.3493,155.1056,-0.019501,-0.00653643,0.0,0 STARLINK-3286,1 50171U 21125R   22063.25002315 -.00653643  00000-0 -19501-1 0  9992,2 50171  53.2174 354.2201 0001423  63.3493 155.1056 15.36403572 14704,6834.892,93.725,457.729,455.784,0.0
50171.0,STARLINK-3286,PAYLOAD,2022-03-04 14:00:01,15.359404199999998,0.0001537,53.2176,352.656,49.3886,213.5025,-0.019979,-0.00659304,0.0,0 STARLINK-3286,1 50171U 21125R   22063.58335648 -.00659304  00000-0 -19979-1 0  9995,2 50171  53.2176 352.6560 0001537  49.3886 213.5025 15.35940420  3678,6836.266,93.754,459.181,457.08,0.0
50171.0,STARLINK-3286,PAYLOAD,2022-03-04 22:00:00,15.35474925,0.0001559,53.2176,351.0955,47.5749,259.1271,-0.020343,-0.0066117999999999,0.0,0 STARLINK-3286,1 50171U 21125R   22063.91667824 -.00661180  00000-0 -20343-1 0  9998,2 50171  53.2176 351.0955 0001559  47.5749 259.1271 15.35474925  3661,6837.647,93.782,460.578,458.446,0.0
50171.0,STARLINK-3286,PAYLOAD,2022-03-05 06:00:00,15.35006346,0.0001557,53.2174,349.537,41.5566,308.4601,-0.020526,-0.00657434,0.0,0 STARLINK-3286,1 50171U 21125R   22064.25001157 -.00657434  00000-0 -20526-1 0  9997,2 50171  53.2174 349.5370 0001557  41.5566 308.4601 15.35006346 14857,6839.0390000000025,93.811,461.968,459.839,0.0
50171.0,STARLINK-3286,PAYLOAD,2022-03-05 14:00:01,15.34540233,0.000138,53.2175,347.9762,47.4243,345.3481,-0.020885,-0.00658885,0.0,0 STARLINK-3286,1 50171U 21125R   22064.58334491 -.00658885  00000-0 -20885-1 0  9992,2 50171  53.2175 347.9762 0001380  47.4243 345.3481 15.34540233  3644,6840.4230000000025,93.839,463.232,461.344,0.0
50171.0,STARLINK-3286,PAYLOAD,2022-03-05 22:00:01,15.3407588,0.0001545,53.2176,346.4192,44.0442,30.9846,-0.021325,-0.00662602,0.0,0 STARLINK-3286,1 50171U 21125R   22064.91668981 -.00662602  00000-0 -21325-1 0  9995,2 50171  53.2176 346.4192 0001545  44.0442  30.9846 15.34075880  3679,6841.804,93.868,464.726,462.612,0.0
50171.0,STARLINK-3286,PAYLOAD,2022-03-06 06:00:00,15.33605323,0.0001599,53.2173,344.8637,43.987,72.6116,-0.021395,-0.00655426,0.0,0 STARLINK-3286,1 50171U 21125R   22065.25001157 -.00655426  00000-0 -21395-1 0  9992,2 50171  53.2173 344.8637 0001599  43.9870  72.6116 15.33605323 15018,6843.203,93.896,466.162,463.974,0.0
50171.0,STARLINK-3286,PAYLOAD,2022-03-06 14:00:01,15.33139967,0.0001585,53.2174,343.3063,47.0674,110.6043,-0.021784,-0.00657405,0.0,0 STARLINK-3286,1 50171U 21125R   22065.58334491 -.00657405  00000-0 -21784-1 0  9999,2 50171  53.2174 343.3063 0001585  47.0674 110.6043 15.33139967  3664,6844.5880000000025,93.925,467.538,465.36800000000005,0.0
